[
    {
        "Altitude(m)": 617710.6517596742,
        "Argument of Periapsis(deg)": 0.0,
        "Eccentricity": 0.0,
        "Inclination(deg)": 60.0,
        "Latitude(deg)": -41.102692895785076,
        "Longitude(deg)": 164.9665751832495,
        "Mean Anomaly(deg)": -49.09089999999989,
        "RAAN(deg)": 295.00000000000006,
        "Satellite Name": "Test1 1317",
        "Satellite Number": 1317,
        "Semi-Major Axis(m)": 6980739.136638005,
        "Time(s)": 0
    },
    {
        "Altitude(m)": 617517.9504257196,
        "Argument of Periapsis(deg)": 0.00010418945913296404,
        "Eccentricity": 0.0,
        "Inclination(deg)": 60.0,
        "Latitude(deg)": -40.63690040108476,
        "Longitude(deg)": 165.4633699279439,
        "Mean Anomaly(deg)": -48.47079385453804,
        "RAAN(deg)": 294.99957995086027,
        "Satellite Name": "Test1 1317",
        "Satellite Number": 1317,
        "Semi-Major Axis(m)": 6980739.136638005,
        "Time(s)": 10
    }
]